CYGNUS NG-23            
1 65616U 25208A   25364.72639447  .00016146  00000+0  30091-3 0  9996
2 65616  51.6331  53.3984 0007477 320.8804  39.1643 15.48950977   222
DRAGONFLY               
1 65729U 98067XH  25365.13635536  .00339218  00000+0  17653-2 0  9991
2 65729  51.6247  41.0992 0008742  24.4892 335.6523 15.79388283 16065
1998-067XK              
1 65731U 98067XK  25365.15824366  .00163064  00000+0  13208-2 0  9993
2 65731  51.6291  43.5346 0005312 359.7130   0.3863 15.69726478 16037
RSP-03                  
1 65732U 98067XL  25365.12204725  .00233138  00000+0  15593-2 0  9991
2 65732  51.6264  42.5233 0006374   5.9815 354.1259 15.74030178 16053
GHS-01                  
1 65733U 98067XM  25364.34851925  .00460338  00000+0  18874-2 0  9994
2 65733  51.6270  44.0965 0009807  24.2416 335.9046 15.84202469 15960
YOTSUBA-KULOVER         
1 65941U 98067XN  25364.51377662  .00098167  00000+0  10929-2 0  9995
2 65941  51.6297  50.4832 0003123  27.4443 332.6715 15.62050182 12631
BOTAN                   
1 65942U 98067XP  25364.53635657  .00167515  00000+0  15144-2 0  9997
2 65942  51.6282  49.1302 0004053  14.4152 345.6959 15.67032425 12650
E-KAGAKU-1              
1 65943U 98067XQ  25364.51378364  .00102622  00000+0  11400-2 0  9994
2 65943  51.6307  50.4889 0001868  10.3780 349.7252 15.62088967 12633
HRC MONOBLOCK CAMERA    
1 66052U 98067XR  25365.16237319  .00049567  00000+0  71429-3 0  9998
2 66052  51.6310  49.5617 0001598 283.0656  77.0157 15.55511046 11701
HTV-X1                  
1 66174U 25241A   25364.72639447  .00016146  00000+0  30091-3 0  9993
2 66174  51.6331  53.3984 0007477 320.8804  39.1643 15.48950977   514
SZ-21 MODULE            
1 66515U 25246C   25365.06945745  .00040549  00000+0  42604-3 0  9993
2 66515  41.4763 264.1497 0003033   3.4177 356.6683 15.63556813  7315
SHENZHOU-22             
1 66645U 25272A   25364.77333339  .00024941  00000+0  30324-3 0  9997
2 66645  41.4669 267.1660 0009715 184.6419 175.4330 15.59924070265987
