CCSDS_OMM_VERS = 2.0
CREATION_DATE  = 
ORIGINATOR     = 

OBJECT_NAME    = CYGNUS NG-23
OBJECT_ID      = 2025-208A
CENTER_NAME    = EARTH
REF_FRAME      = TEME
TIME_SYSTEM    = UTC
MEAN_ELEMENT_THEORY = SGP/SGP4

EPOCH          = 2025-12-30T17:26:00.482208
MEAN_MOTION    = 15.48950977
ECCENTRICITY   = .00074779
INCLINATION    = 51.6331
RA_OF_ASC_NODE = 53.3984
ARG_OF_PERICENTER = 320.8804
MEAN_ANOMALY   = 39.1643

EPHEMERIS_TYPE = 0
CLASSIFICATION_TYPE = U
NORAD_CAT_ID   = 65616
ELEMENT_SET_NO = 999
REV_AT_EPOCH   = 22
BSTAR          = .30091324E-3
MEAN_MOTION_DOT = .16146E-3
MEAN_MOTION_DDOT = 0

CCSDS_OMM_VERS = 2.0
CREATION_DATE  = 
ORIGINATOR     = 

OBJECT_NAME    = DRAGONFLY
OBJECT_ID      = 1998-067XH
CENTER_NAME    = EARTH
REF_FRAME      = TEME
TIME_SYSTEM    = UTC
MEAN_ELEMENT_THEORY = SGP/SGP4

EPOCH          = 2025-12-31T03:16:21.103104
MEAN_MOTION    = 15.79388283
ECCENTRICITY   = .0008742
INCLINATION    = 51.6247
RA_OF_ASC_NODE = 41.0992
ARG_OF_PERICENTER = 24.4892
MEAN_ANOMALY   = 335.6523

EPHEMERIS_TYPE = 0
CLASSIFICATION_TYPE = U
NORAD_CAT_ID   = 65729
ELEMENT_SET_NO = 999
REV_AT_EPOCH   = 1606
BSTAR          = .17653E-2
MEAN_MOTION_DOT = .339218E-2
MEAN_MOTION_DDOT = 0

CCSDS_OMM_VERS = 2.0
CREATION_DATE  = 
ORIGINATOR     = 

OBJECT_NAME    = 1998-067XK
OBJECT_ID      = 1998-067XK
CENTER_NAME    = EARTH
REF_FRAME      = TEME
TIME_SYSTEM    = UTC
MEAN_ELEMENT_THEORY = SGP/SGP4

EPOCH          = 2025-12-31T03:47:52.252224
MEAN_MOTION    = 15.69726478
ECCENTRICITY   = .0005312
INCLINATION    = 51.6291
RA_OF_ASC_NODE = 43.5346
ARG_OF_PERICENTER = 359.7130
MEAN_ANOMALY   = 0.3863

EPHEMERIS_TYPE = 0
CLASSIFICATION_TYPE = U
NORAD_CAT_ID   = 65731
ELEMENT_SET_NO = 999
REV_AT_EPOCH   = 1603
BSTAR          = .13208E-2
MEAN_MOTION_DOT = .163064E-2
MEAN_MOTION_DDOT = 0

CCSDS_OMM_VERS = 2.0
CREATION_DATE  = 
ORIGINATOR     = 

OBJECT_NAME    = RSP-03
OBJECT_ID      = 1998-067XL
CENTER_NAME    = EARTH
REF_FRAME      = TEME
TIME_SYSTEM    = UTC
MEAN_ELEMENT_THEORY = SGP/SGP4

EPOCH          = 2025-12-31T02:55:44.882400
MEAN_MOTION    = 15.74030178
ECCENTRICITY   = .0006374
INCLINATION    = 51.6264
RA_OF_ASC_NODE = 42.5233
ARG_OF_PERICENTER = 5.9815
MEAN_ANOMALY   = 354.1259

EPHEMERIS_TYPE = 0
CLASSIFICATION_TYPE = U
NORAD_CAT_ID   = 65732
ELEMENT_SET_NO = 999
REV_AT_EPOCH   = 1605
BSTAR          = .15593E-2
MEAN_MOTION_DOT = .233138E-2
MEAN_MOTION_DDOT = 0

CCSDS_OMM_VERS = 2.0
CREATION_DATE  = 
ORIGINATOR     = 

OBJECT_NAME    = GHS-01
OBJECT_ID      = 1998-067XM
CENTER_NAME    = EARTH
REF_FRAME      = TEME
TIME_SYSTEM    = UTC
MEAN_ELEMENT_THEORY = SGP/SGP4

EPOCH          = 2025-12-30T08:21:52.063200
MEAN_MOTION    = 15.84202469
ECCENTRICITY   = .0009807
INCLINATION    = 51.6270
RA_OF_ASC_NODE = 44.0965
ARG_OF_PERICENTER = 24.2416
MEAN_ANOMALY   = 335.9046

EPHEMERIS_TYPE = 0
CLASSIFICATION_TYPE = U
NORAD_CAT_ID   = 65733
ELEMENT_SET_NO = 999
REV_AT_EPOCH   = 1596
BSTAR          = .18873592E-2
MEAN_MOTION_DOT = .460338E-2
MEAN_MOTION_DDOT = 0

CCSDS_OMM_VERS = 2.0
CREATION_DATE  = 
ORIGINATOR     = 

OBJECT_NAME    = YOTSUBA-KULOVER
OBJECT_ID      = 1998-067XN
CENTER_NAME    = EARTH
REF_FRAME      = TEME
TIME_SYSTEM    = UTC
MEAN_ELEMENT_THEORY = SGP/SGP4

EPOCH          = 2025-12-30T12:19:50.299968
MEAN_MOTION    = 15.62050182
ECCENTRICITY   = .00031238
INCLINATION    = 51.6297
RA_OF_ASC_NODE = 50.4832
ARG_OF_PERICENTER = 27.4443
MEAN_ANOMALY   = 332.6715

EPHEMERIS_TYPE = 0
CLASSIFICATION_TYPE = U
NORAD_CAT_ID   = 65941
ELEMENT_SET_NO = 999
REV_AT_EPOCH   = 1263
BSTAR          = .10929188E-2
MEAN_MOTION_DOT = .98167E-3
MEAN_MOTION_DDOT = 0

CCSDS_OMM_VERS = 2.0
CREATION_DATE  = 
ORIGINATOR     = 

OBJECT_NAME    = BOTAN
OBJECT_ID      = 1998-067XP
CENTER_NAME    = EARTH
REF_FRAME      = TEME
TIME_SYSTEM    = UTC
MEAN_ELEMENT_THEORY = SGP/SGP4

EPOCH          = 2025-12-30T12:52:21.207648
MEAN_MOTION    = 15.67032425
ECCENTRICITY   = .0004053
INCLINATION    = 51.6282
RA_OF_ASC_NODE = 49.1302
ARG_OF_PERICENTER = 14.4152
MEAN_ANOMALY   = 345.6959

EPHEMERIS_TYPE = 0
CLASSIFICATION_TYPE = U
NORAD_CAT_ID   = 65942
ELEMENT_SET_NO = 999
REV_AT_EPOCH   = 1265
BSTAR          = .15144377E-2
MEAN_MOTION_DOT = .167515E-2
MEAN_MOTION_DDOT = 0

CCSDS_OMM_VERS = 2.0
CREATION_DATE  = 
ORIGINATOR     = 

OBJECT_NAME    = E-KAGAKU-1
OBJECT_ID      = 1998-067XQ
CENTER_NAME    = EARTH
REF_FRAME      = TEME
TIME_SYSTEM    = UTC
MEAN_ELEMENT_THEORY = SGP/SGP4

EPOCH          = 2025-12-30T12:19:50.906496
MEAN_MOTION    = 15.62088967
ECCENTRICITY   = .00018685
INCLINATION    = 51.6307
RA_OF_ASC_NODE = 50.4889
ARG_OF_PERICENTER = 10.3780
MEAN_ANOMALY   = 349.7252

EPHEMERIS_TYPE = 0
CLASSIFICATION_TYPE = U
NORAD_CAT_ID   = 65943
ELEMENT_SET_NO = 999
REV_AT_EPOCH   = 1263
BSTAR          = .11400228E-2
MEAN_MOTION_DOT = .102622E-2
MEAN_MOTION_DDOT = 0

CCSDS_OMM_VERS = 2.0
CREATION_DATE  = 
ORIGINATOR     = 

OBJECT_NAME    = HRC MONOBLOCK CAMERA
OBJECT_ID      = 1998-067XR
CENTER_NAME    = EARTH
REF_FRAME      = TEME
TIME_SYSTEM    = UTC
MEAN_ELEMENT_THEORY = SGP/SGP4

EPOCH          = 2025-12-31T03:53:49.043616
MEAN_MOTION    = 15.55511046
ECCENTRICITY   = .0001598
INCLINATION    = 51.6310
RA_OF_ASC_NODE = 49.5617
ARG_OF_PERICENTER = 283.0656
MEAN_ANOMALY   = 77.0157

EPHEMERIS_TYPE = 0
CLASSIFICATION_TYPE = U
NORAD_CAT_ID   = 66052
ELEMENT_SET_NO = 999
REV_AT_EPOCH   = 1170
BSTAR          = .71429E-3
MEAN_MOTION_DOT = .49567E-3
MEAN_MOTION_DDOT = 0

CCSDS_OMM_VERS = 2.0
CREATION_DATE  = 
ORIGINATOR     = 

OBJECT_NAME    = HTV-X1
OBJECT_ID      = 2025-241A
CENTER_NAME    = EARTH
REF_FRAME      = TEME
TIME_SYSTEM    = UTC
MEAN_ELEMENT_THEORY = SGP/SGP4

EPOCH          = 2025-12-30T17:26:00.482208
MEAN_MOTION    = 15.48950977
ECCENTRICITY   = .00074779
INCLINATION    = 51.6331
RA_OF_ASC_NODE = 53.3984
ARG_OF_PERICENTER = 320.8804
MEAN_ANOMALY   = 39.1643

EPHEMERIS_TYPE = 0
CLASSIFICATION_TYPE = U
NORAD_CAT_ID   = 66174
ELEMENT_SET_NO = 999
REV_AT_EPOCH   = 51
BSTAR          = .30091324E-3
MEAN_MOTION_DOT = .16146E-3
MEAN_MOTION_DDOT = 0

CCSDS_OMM_VERS = 2.0
CREATION_DATE  = 
ORIGINATOR     = 

OBJECT_NAME    = SZ-21 MODULE
OBJECT_ID      = 2025-246C
CENTER_NAME    = EARTH
REF_FRAME      = TEME
TIME_SYSTEM    = UTC
MEAN_ELEMENT_THEORY = SGP/SGP4

EPOCH          = 2025-12-31T01:40:01.123680
MEAN_MOTION    = 15.63556813
ECCENTRICITY   = .0003033
INCLINATION    = 41.4763
RA_OF_ASC_NODE = 264.1497
ARG_OF_PERICENTER = 3.4177
MEAN_ANOMALY   = 356.6683

EPHEMERIS_TYPE = 0
CLASSIFICATION_TYPE = U
NORAD_CAT_ID   = 66515
ELEMENT_SET_NO = 999
REV_AT_EPOCH   = 731
BSTAR          = .42604E-3
MEAN_MOTION_DOT = .40549E-3
MEAN_MOTION_DDOT = 0

CCSDS_OMM_VERS = 2.0
CREATION_DATE  = 
ORIGINATOR     = 

OBJECT_NAME    = SHENZHOU-22
OBJECT_ID      = 2025-272A
CENTER_NAME    = EARTH
REF_FRAME      = TEME
TIME_SYSTEM    = UTC
MEAN_ELEMENT_THEORY = SGP/SGP4

EPOCH          = 2025-12-30T18:33:36.004896
MEAN_MOTION    = 15.59924070
ECCENTRICITY   = .00097157
INCLINATION    = 41.4669
RA_OF_ASC_NODE = 267.1660
ARG_OF_PERICENTER = 184.6419
MEAN_ANOMALY   = 175.4330

EPHEMERIS_TYPE = 0
CLASSIFICATION_TYPE = U
NORAD_CAT_ID   = 66645
ELEMENT_SET_NO = 999
REV_AT_EPOCH   = 26598
BSTAR          = .303244E-3
MEAN_MOTION_DOT = .24941E-3
MEAN_MOTION_DDOT = 0

